{
 "type": "FeatureCollection",
 "features": [
  {
   "type": "Feature",
   "properties": {
    "id": "isle-of-kortos",
    "name": "Isle of Kortos",
    "kind": "nation-empire",
    "text": "Island home of Absalom and the Starstone. The City at the Center of the World rules the isle; Aroden remains active in this era.",
    "loreUrl": "https://samarioncodex.neocities.org/heroes-of-absalom.html",
    "tags": "Absalom, Starstone, Current Timeline"
   },
   "geometry": {
    "type": "Point",
    "coordinates": [
     -0.315195772295624,
     31.295328568462608
    ]
   }
  },
  {
   "type": "Feature",
   "properties": {
    "id": "absalom-capital",
    "name": "Absalom",
    "kind": "capital",
    "text": "Ruling city of the Isle of Kortos and the City at the Center of the World. In this campaign era, Aroden is still active and tied directly into Absalom politics.",
    "loreUrl": "https://samarioncodex.neocities.org/heroes-of-absalom.html",
    "tags": "Capital, Isle of Kortos, Starstone"
   },
   "geometry": {
    "type": "Point",
    "coordinates": [
     -0.234,
     30.889
    ]
   }
  },
  {
   "type": "Feature",
   "properties": {
    "id": "monster",
    "name": "Monster",
    "kind": "nation-empire",
    "text": "A settled and unexpectedly stable goblin nation ruled by the Goblin King \u2014 He Who Sits and Does Not Move. Its border with Taldor remains surprisingly peaceful. In published history this land later becomes Andoran; not here, and not yet.",
    "loreUrl": "https://samarioncodex.neocities.org/monster.html",
    "tags": "Goblin Kingdom, Current Timeline, Goblin King"
   },
   "geometry": {
    "type": "Point",
    "coordinates": [
     -3.5953205370088597,
     35.34471276267675
    ]
   }
  },
  {
   "type": "Feature",
   "properties": {
    "id": "monster-capital",
    "name": "Monster (city)",
    "kind": "capital",
    "text": "Capital and ruling city of the goblin nation of Monster, seat of the ruler foreign courts call the Goblin King.",
    "loreUrl": "https://samarioncodex.neocities.org/monster.html",
    "tags": "Capital, Monster"
   },
   "geometry": {
    "type": "Point",
    "coordinates": [
     -3.0595746605272325,
     33.76377647420185
    ]
   }
  },
  {
   "type": "Feature",
   "properties": {
    "id": "taldor",
    "name": "Taldor",
    "kind": "nation-empire",
    "text": "One of the great human powers of the Inner Sea under House Samarion: old, lawful, wealthy, cultured, and armed. Competes with the Kelesh Empire while keeping a deliberately stable border with Monster.",
    "loreUrl": "https://samarioncodex.neocities.org/taldor-kings.html",
    "tags": "Dynasty, Royal Line"
   },
   "geometry": {
    "type": "Point",
    "coordinates": [
     3.932191822232568,
     35.758658301701544
    ]
   }
  },
  {
   "type": "Feature",
   "properties": {
    "id": "oppara",
    "name": "Oppara",
    "kind": "capital",
    "text": "Capital of Taldor and seat of House Samarion.",
    "loreUrl": "https://samarioncodex.neocities.org/taldor-kings.html",
    "tags": "Capital, Taldor"
   },
   "geometry": {
    "type": "Point",
    "coordinates": [
     3.757,
     33.238
    ]
   }
  },
  {
   "type": "Feature",
   "properties": {
    "id": "kelesh-empire",
    "name": "Kelesh Empire",
    "kind": "nation-empire",
    "text": "Eastern imperial power that still includes Qadira in the current campaign era. Anchor for Taldan frontier pressure, Qadiran politics, trade, and wider imperial influence.",
    "loreUrl": "",
    "tags": "Eastern Empire, Qadira"
   },
   "geometry": {
    "type": "Point",
    "coordinates": [
     8.80160403421931,
     25.478740229779177
    ]
   }
  },
  {
   "type": "Feature",
   "properties": {
    "id": "kelesh-empire-capital",
    "name": "Katheer",
    "kind": "capital",
    "text": "Seat of the Satrap and the empire's western court. The Padishah Emperor rules from distant Casmaron beyond the map's edge.",
    "loreUrl": "",
    "tags": "Capital, Kelesh Empire"
   },
   "geometry": {
    "type": "Point",
    "coordinates": [
     5.405,
     29.696
    ]
   }
  },
  {
   "type": "Feature",
   "properties": {
    "id": "osirion",
    "name": "Osirion",
    "kind": "nation-empire",
    "text": "Restored by Grubdy Mudane and Nesira Tefenet, Osirion controls Rahadoum, Thuvia, Katapesh, and territory won from Kelesh. In 277 AR the throne stands empty during the Cold Civil War.",
    "loreUrl": "https://samarioncodex.neocities.org/osirion-mudane-lineage.html",
    "tags": "Mudane Dynasty, Southern Empire, Cold Civil War"
   },
   "geometry": {
    "type": "Point",
    "coordinates": [
     -10.441893870889174,
     27.319618856836854
    ]
   }
  },
  {
   "type": "Feature",
   "properties": {
    "id": "sothis",
    "name": "Sothis",
    "kind": "capital",
    "text": "Capital of Osirion and the ruling seat of its restored southern empire.",
    "loreUrl": "https://samarioncodex.neocities.org/osirion-mudane-lineage.html",
    "tags": "Capital, Osirion"
   },
   "geometry": {
    "type": "Point",
    "coordinates": [
     -1.488,
     27.148
    ]
   }
  },
  {
   "type": "Feature",
   "properties": {
    "id": "wyrmrest-sanctuary",
    "name": "Wyrmrest Sanctuary",
    "kind": "sanctuary",
    "text": "A protected forest sanctuary in Rahadoum gifted by Pharaoh Grubdy Mudane to Rawr and Chomper. Entry is forbidden without Rawr's approval; wards keep intruders out and the dinosaurs safely within.",
    "loreUrl": "https://samarioncodex.neocities.org/wyrmrest-sanctuary.html",
    "tags": "Rahadoum, Dinosaur Preserve, Rawr, Chomper"
   },
   "geometry": {
    "type": "Point",
    "coordinates": [
     -24.315774632092797,
     26.925815439953226
    ]
   }
  },
  {
   "type": "Feature",
   "properties": {
    "id": "nex",
    "name": "Nex",
    "kind": "nation-empire",
    "text": "A high-magic southern nation facing an Osirion-built border wall intended to cut off its trade and support Geb. The archmage Nex remains active in this era, holding Jalmeray since 253 AR.",
    "loreUrl": "",
    "tags": "Magic, Southern Nation"
   },
   "geometry": {
    "type": "Point",
    "coordinates": [
     -5.142130735720116,
     20.33725023967544
    ]
   }
  },
  {
   "type": "Feature",
   "properties": {
    "id": "quantium",
    "name": "Quantium",
    "kind": "capital",
    "text": "Capital of Nex and seat of its arcane government.",
    "loreUrl": "",
    "tags": "Capital, Nex"
   },
   "geometry": {
    "type": "Point",
    "coordinates": [
     -2.598,
     19.832
    ]
   }
  },
  {
   "type": "Feature",
   "properties": {
    "id": "mana-wastes",
    "name": "Mana Wastes",
    "kind": "nation-empire",
    "text": "The scarred territory between Nex and Geb, shaped by their long war \u2014 strange hazards, ruins, and unstable magic.",
    "loreUrl": "",
    "tags": "Arcane Scar, Nex, Geb"
   },
   "geometry": {
    "type": "Point",
    "coordinates": [
     -6.692576586056276,
     18.4598058500097
    ]
   }
  },
  {
   "type": "Feature",
   "properties": {
    "id": "geb",
    "name": "Geb",
    "kind": "nation-empire",
    "text": "Southern undead power and counterweight to Nex. Osirion supports Geb, restricting Nexian trade with a border wall.",
    "loreUrl": "",
    "tags": "Undeath, Southern Nation"
   },
   "geometry": {
    "type": "Point",
    "coordinates": [
     -5.1803113244287715,
     16.263280478627493
    ]
   }
  },
  {
   "type": "Feature",
   "properties": {
    "id": "mechitar",
    "name": "Mechitar",
    "kind": "capital",
    "text": "Capital of Geb and ruling city of the undead kingdom.",
    "loreUrl": "",
    "tags": "Capital, Geb"
   },
   "geometry": {
    "type": "Point",
    "coordinates": [
     -2.541,
     14.761
    ]
   }
  },
  {
   "type": "Feature",
   "properties": {
    "id": "abendego-gulf",
    "name": "ABENDEGO GULF",
    "kind": "sea-label",
    "text": "The calm gulf off western Garund. In published history, a permanent hurricane \u2014 the Eye of Abendego \u2014 forms here in 4606 AR at the moment of Aroden's death, drowning the coastal nations. In this world Aroden lives, and the gulf is just a gulf.",
    "loreUrl": "",
    "tags": "Sea, Restored Geography"
   },
   "geometry": {
    "type": "Point",
    "coordinates": [
     -26,
     21.5
    ]
   }
  },
  {
   "type": "Feature",
   "properties": {
    "id": "lirgen",
    "name": "Lirgen",
    "kind": "nation-empire",
    "text": "Realm of the Saoc Brethren, astrologer-priests who chart every fate in the stars \u2014 they read the arrival of Grub's expedition eleven years before it sailed. Bound to Osirion in friendship by the Abendego Accord (171 AR). In published history Lirgen drowns beneath the Eye of Abendego; in this world the stars stay kind.",
    "loreUrl": "https://samarioncodex.neocities.org/lirgen-yamasa.html",
    "tags": "Saoc Brethren, Astrologers, Abendego Accord"
   },
   "geometry": {
    "type": "Point",
    "coordinates": [
     -22.2,
     21.7
    ]
   }
  },
  {
   "type": "Feature",
   "properties": {
    "id": "hyrantam",
    "name": "Hyrantam",
    "kind": "capital",
    "text": "Capital of Lirgen and seat of the Saoc Brethren's star-courts. Its wharf-masters logged the names of Grub's expedition before the Kind Wager ever made harbor, and each year its astrologers still send the dead Pharaoh's horoscope to Sothis \u2014 sealed, and never opened.",
    "loreUrl": "https://samarioncodex.neocities.org/lirgen-yamasa.html",
    "tags": "Capital, Lirgen"
   },
   "geometry": {
    "type": "Point",
    "coordinates": [
     -20.64,
     22.39
    ]
   }
  },
  {
   "type": "Feature",
   "properties": {
    "id": "yamasa",
    "name": "Yamasa",
    "kind": "nation-empire",
    "text": "Clan-held river country ruled by its matriarchs, whose wetland harvests feed half the western gulf \u2014 and, since the Abendego Accord (171 AR), Osirion's markets too. Grub called them the only people he ever met who haggled properly. Published history drowns Yamasa; here its rivers run their own course.",
    "loreUrl": "https://samarioncodex.neocities.org/lirgen-yamasa.html",
    "tags": "Matriarchal Clans, Abendego Accord, Trade"
   },
   "geometry": {
    "type": "Point",
    "coordinates": [
     -21.5,
     19.5
    ]
   }
  },
  {
   "type": "Feature",
   "properties": {
    "id": "jula",
    "name": "Jula",
    "kind": "capital",
    "text": "Greatest of Yamasa's river-towns and meeting-seat of the clan matriarchs. Pharaoh Grub walked its flood-markets for a full day in near silence \u2014 his highest form of respect \u2014 before signing the Abendego Accord on its river-stones.",
    "loreUrl": "https://samarioncodex.neocities.org/lirgen-yamasa.html",
    "tags": "Capital, Yamasa"
   },
   "geometry": {
    "type": "Point",
    "coordinates": [
     -22.63,
     20.68
    ]
   }
  }
 ]
}